{
  "type": "FeatureCollection",
  "features": [
    {
      "type": "Feature",
      "properties": {
        "norad_id": 33844,
        "name": "COSMOS 2251 DEB",
        "group": "cosmos-2251-debris",
        "lat": -58.72721891188565,
        "lon": 23.81387624286064,
        "alt_km": 810.4178465243203,
        "timestamp": "2025-12-13T05:42:57.964935+00:00",
        "meta_object_name": "COSMOS 2251 DEB",
        "meta_object_id": "1993-036CM",
        "meta_epoch": "2025-12-12T06:51:46.626048",
        "meta_mean_motion": 14.33714977,
        "meta_eccentricity": 0.00470667,
        "meta_inclination": 74.0672,
        "meta_ra_of_asc_node": 53.6074,
        "meta_arg_of_pericenter": 75.7032,
        "meta_mean_anomaly": 349.2286,
        "meta_ephemeris_type": 0,
        "meta_classification_type": "U",
        "meta_norad_cat_id": 33844,
        "meta_element_set_no": 999,
        "meta_rev_at_epoch": 87719,
        "meta_bstar": 0.00056591394,
        "meta_mean_motion_dot": 1.565e-05,
        "meta_mean_motion_ddot": 0,
        "tle_line1": "1 33844U 93036CM  25346.28595632  .00001565  00000+0  56591-3 0  9998",
        "tle_line2": "2 33844  74.0672  53.6074 0047066  75.7032 349.2286 14.33714977877194"
      },
      "geometry": {
        "type": "Point",
        "coordinates": [
          23.81387624286064,
          -58.72721891188565
        ]
      }
    },
    {
      "type": "Feature",
      "properties": {
        "norad_id": 33848,
        "name": "COSMOS 2251 DEB",
        "group": "cosmos-2251-debris",
        "lat": 41.863823619011775,
        "lon": 161.84982929547726,
        "alt_km": 737.8824299073258,
        "timestamp": "2025-12-13T05:42:57.964946+00:00",
        "meta_object_name": "COSMOS 2251 DEB",
        "meta_object_id": "1993-036CR",
        "meta_epoch": "2025-12-12T00:58:09.715008",
        "meta_mean_motion": 14.44053563,
        "meta_eccentricity": 0.0041071,
        "meta_inclination": 74.0325,
        "meta_ra_of_asc_node": 358.944,
        "meta_arg_of_pericenter": 55.0525,
        "meta_mean_anomaly": 336.1612,
        "meta_ephemeris_type": 0,
        "meta_classification_type": "U",
        "meta_norad_cat_id": 33848,
        "meta_element_set_no": 999,
        "meta_rev_at_epoch": 87821,
        "meta_bstar": 0.0015645,
        "meta_mean_motion_dot": 5.386e-05,
        "meta_mean_motion_ddot": 0,
        "tle_line1": "1 33848U 93036CR  25346.04039022  .00005386  00000+0  15645-2 0  9991",
        "tle_line2": "2 33848  74.0325 358.9440 0041071  55.0525 336.1612 14.44053563878210"
      },
      "geometry": {
        "type": "Point",
        "coordinates": [
          161.84982929547726,
          41.863823619011775
        ]
      }
    },
    {
      "type": "Feature",
      "properties": {
        "norad_id": 33892,
        "name": "COSMOS 2251 DEB",
        "group": "cosmos-2251-debris",
        "lat": 20.474225468281595,
        "lon": 107.37958425935525,
        "alt_km": 841.761980465003,
        "timestamp": "2025-12-13T05:42:57.964956+00:00",
        "meta_object_name": "COSMOS 2251 DEB",
        "meta_object_id": "1993-036CV",
        "meta_epoch": "2025-12-11T18:53:42.205920",
        "meta_mean_motion": 14.2333295,
        "meta_eccentricity": 0.01128939,
        "meta_inclination": 73.8027,
        "meta_ra_of_asc_node": 103.7951,
        "meta_arg_of_pericenter": 135.2175,
        "meta_mean_anomaly": 16.048,
        "meta_ephemeris_type": 0,
        "meta_classification_type": "U",
        "meta_norad_cat_id": 33892,
        "meta_element_set_no": 999,
        "meta_rev_at_epoch": 86941,
        "meta_bstar": 0.0013560055,
        "meta_mean_motion_dot": 3.257e-05,
        "meta_mean_motion_ddot": 0,
        "tle_line1": "1 33892U 93036CV  25345.78729405  .00003257  00000+0  13560-2 0  9990",
        "tle_line2": "2 33892  73.8027 103.7951 0112893 135.2175  16.0480 14.23332950869417"
      },
      "geometry": {
        "type": "Point",
        "coordinates": [
          107.37958425935525,
          20.474225468281595
        ]
      }
    },
    {
      "type": "Feature",
      "properties": {
        "norad_id": 33894,
        "name": "COSMOS 2251 DEB",
        "group": "cosmos-2251-debris",
        "lat": 65.57143658976521,
        "lon": 128.41921522435652,
        "alt_km": 1578.9872233852875,
        "timestamp": "2025-12-13T05:42:57.964966+00:00",
        "meta_object_name": "COSMOS 2251 DEB",
        "meta_object_id": "1993-036CX",
        "meta_epoch": "2025-12-12T00:03:02.543328",
        "meta_mean_motion": 13.21299903,
        "meta_eccentricity": 0.0579541,
        "meta_inclination": 73.7679,
        "meta_ra_of_asc_node": 350.2214,
        "meta_arg_of_pericenter": 269.7288,
        "meta_mean_anomaly": 83.7417,
        "meta_ephemeris_type": 0,
        "meta_classification_type": "U",
        "meta_norad_cat_id": 33894,
        "meta_element_set_no": 999,
        "meta_rev_at_epoch": 80698,
        "meta_bstar": 0.002681,
        "meta_mean_motion_dot": 2.649e-05,
        "meta_mean_motion_ddot": 0,
        "tle_line1": "1 33894U 93036CX  25346.00211277  .00002649  00000+0  26810-2 0  9997",
        "tle_line2": "2 33894  73.7679 350.2214 0579541 269.7288  83.7417 13.21299903806988"
      },
      "geometry": {
        "type": "Point",
        "coordinates": [
          128.41921522435652,
          65.57143658976521
        ]
      }
    },
    {
      "type": "Feature",
      "properties": {
        "norad_id": 33896,
        "name": "COSMOS 2251 DEB",
        "group": "cosmos-2251-debris",
        "lat": 73.13027612236928,
        "lon": -130.31529957634436,
        "alt_km": 857.3241779886703,
        "timestamp": "2025-12-13T05:42:57.964977+00:00",
        "meta_object_name": "COSMOS 2251 DEB",
        "meta_object_id": "1993-036CZ",
        "meta_epoch": "2025-12-12T04:29:11.254848",
        "meta_mean_motion": 14.19036377,
        "meta_eccentricity": 0.01264282,
        "meta_inclination": 73.7657,
        "meta_ra_of_asc_node": 157.6865,
        "meta_arg_of_pericenter": 333.4727,
        "meta_mean_anomaly": 142.4013,
        "meta_ephemeris_type": 0,
        "meta_classification_type": "U",
        "meta_norad_cat_id": 33896,
        "meta_element_set_no": 999,
        "meta_rev_at_epoch": 86732,
        "meta_bstar": 0.00089423071,
        "meta_mean_motion_dot": 1.995e-05,
        "meta_mean_motion_ddot": 0,
        "tle_line1": "1 33896U 93036CZ  25346.18693582  .00001995  00000+0  89423-3 0  9994",
        "tle_line2": "2 33896  73.7657 157.6865 0126428 333.4727 142.4013 14.19036377867328"
      },
      "geometry": {
        "type": "Point",
        "coordinates": [
          -130.31529957634436,
          73.13027612236928
        ]
      }
    },
    {
      "type": "Feature",
      "properties": {
        "norad_id": 33899,
        "name": "COSMOS 2251 DEB",
        "group": "cosmos-2251-debris",
        "lat": 0.2865742660012947,
        "lon": -95.30767059724732,
        "alt_km": 657.8747478246323,
        "timestamp": "2025-12-13T05:42:57.964988+00:00",
        "meta_object_name": "COSMOS 2251 DEB",
        "meta_object_id": "1993-036DC",
        "meta_epoch": "2025-12-12T07:47:39.454080",
        "meta_mean_motion": 14.61185348,
        "meta_eccentricity": 0.00567743,
        "meta_inclination": 74.0537,
        "meta_ra_of_asc_node": 86.518,
        "meta_arg_of_pericenter": 149.3996,
        "meta_mean_anomaly": 267.0227,
        "meta_ephemeris_type": 0,
        "meta_classification_type": "U",
        "meta_norad_cat_id": 33899,
        "meta_element_set_no": 999,
        "meta_rev_at_epoch": 88833,
        "meta_bstar": 0.001606091,
        "meta_mean_motion_dot": 8.072e-05,
        "meta_mean_motion_ddot": 0,
        "tle_line1": "1 33899U 93036DC  25346.32476220  .00008072  00000+0  16061-2 0  9991",
        "tle_line2": "2 33899  74.0537  86.5180 0056774 149.3996 267.0227 14.61185348888335"
      },
      "geometry": {
        "type": "Point",
        "coordinates": [
          -95.30767059724732,
          0.2865742660012947
        ]
      }
    },
    {
      "type": "Feature",
      "properties": {
        "norad_id": 33900,
        "name": "COSMOS 2251 DEB",
        "group": "cosmos-2251-debris",
        "lat": -28.834255279986454,
        "lon": -172.00856460843062,
        "alt_km": 686.8669284153311,
        "timestamp": "2025-12-13T05:42:57.964998+00:00",
        "meta_object_name": "COSMOS 2251 DEB",
        "meta_object_id": "1993-036DD",
        "meta_epoch": "2025-12-12T07:25:34.965408",
        "meta_mean_motion": 14.58344978,
        "meta_eccentricity": 0.00468619,
        "meta_inclination": 74.0195,
        "meta_ra_of_asc_node": 0.6829,
        "meta_arg_of_pericenter": 152.9352,
        "meta_mean_anomaly": 222.6856,
        "meta_ephemeris_type": 0,
        "meta_classification_type": "U",
        "meta_norad_cat_id": 33900,
        "meta_element_set_no": 999,
        "meta_rev_at_epoch": 89030,
        "meta_bstar": 0.00061893721,
        "meta_mean_motion_dot": 2.88e-05,
        "meta_mean_motion_ddot": 0,
        "tle_line1": "1 33900U 93036DD  25346.30943247  .00002880  00000+0  61894-3 0  9996",
        "tle_line2": "2 33900  74.0195   0.6829 0046861 152.9352 222.6856 14.58344978890304"
      },
      "geometry": {
        "type": "Point",
        "coordinates": [
          -172.00856460843062,
          -28.834255279986454
        ]
      }
    }
  ]
}